     2              NAVIGATION DATA                         RINEX VERSION / TYPE
CCRINEXN V1.6.0 UX  CDDIS               08-OCT-15 17:31     PGM / RUN BY / DATE 
IGS BROADCAST EPHEMERIS FILE                                COMMENT             
    0.1490D-07  0.7451D-08 -0.1192D-06 -0.5960D-07          ION ALPHA           
    0.1065D+06  0.3277D+05 -0.2621D+06 -0.6554D+05          ION BETA            
   -0.931322574615D-09-0.444089209850D-14   405504     1865 DELTA-UTC: A0,A1,T,W
    17                                                      LEAP SECONDS        
                                                            END OF HEADER       
21 15 10  7 18  0  0.0-0.485092401505D-03-0.261479726760D-11 0.000000000000D+00
    0.200000000000D+02-0.924375000000D+02 0.520235943213D-08 0.145284338378D+01
   -0.495463609695D-05 0.225890121655D-01 0.904873013496D-05 0.515375378990D+04
    0.324000000000D+06-0.445172190666D-06 0.194828585445D+01-0.393018126488D-06
    0.934537295595D+00 0.200406250000D+03-0.187251967988D+01-0.857071391636D-08
   -0.124290897019D-09 0.100000000000D+01 0.186500000000D+04 0.000000000000D+00
    0.200000000000D+01 0.000000000000D+00-0.116415321827D-07 0.200000000000D+02
    0.316800000000D+06 0.000000000000D+00 0.000000000000D+00 0.000000000000D+00
22 15 10  7 18  0  0.0 0.398584175855D-03 0.363797880709D-11 0.000000000000D+00
    0.112000000000D+03 0.241250000000D+02 0.554594529660D-08 0.120561448840D-01
    0.135414302349D-05 0.799364817794D-02 0.939518213272D-05 0.515368136025D+04
    0.324000000000D+06-0.260770320892D-07 0.299191958263D+01-0.372529029846D-08
    0.923266984953D+00 0.177781250000D+03-0.204178275853D+01-0.864678874489D-08
    0.182864759908D-09 0.000000000000D+00 0.186500000000D+04 0.000000000000D+00
    0.400000000000D+01 0.000000000000D+00-0.176951289177D-07 0.112000000000D+03
    0.316800000000D+06 0.400000000000D+01 0.000000000000D+00 0.000000000000D+00
23 15 10  7 18  0  0.0-0.137520488352D-03-0.216004991671D-11 0.000000000000D+00
    0.960000000000D+02 0.116250000000D+02 0.509199781643D-08-0.222783529008D+01
    0.473111867905D-06 0.103990221396D-01 0.497139990330D-05 0.515378815079D+04
    0.324000000000D+06 0.856816768646D-07-0.221846648182D+01-0.158324837685D-06
    0.947440550508D+00 0.275687500000D+03-0.262567815266D+01-0.834499045949D-08
   -0.139291516337D-10 0.000000000000D+00 0.186500000000D+04 0.000000000000D+00
    0.200000000000D+01 0.000000000000D+00-0.200234353542D-07 0.960000000000D+02
    0.316800000000D+06 0.400000000000D+01 0.000000000000D+00 0.000000000000D+00
24 15 10  7 18  0  0.0-0.591576099396D-05-0.568434188608D-12 0.000000000000D+00
    0.150000000000D+02-0.765625000000D+01 0.450840207876D-08-0.290162145719D+01
   -0.387430191040D-06 0.349462812301D-02 0.935047864914D-05 0.515365694809D+04
    0.324000000000D+06 0.111758708954D-07-0.119139721706D+01-0.260770320892D-07
    0.951835380244D+00 0.194312500000D+03 0.300080654078D+00-0.805212111745D-08
   -0.323584907182D-09 0.100000000000D+01 0.186500000000D+04 0.000000000000D+00
    0.200000000000D+01 0.000000000000D+00 0.279396772385D-08 0.150000000000D+02
    0.316818000000D+06 0.400000000000D+01 0.000000000000D+00 0.000000000000D+00
25 15 10  7 18  0  0.0-0.491654500365D-04-0.534328137292D-11 0.000000000000D+00
    0.980000000000D+02 0.598125000000D+02 0.398588031363D-08 0.130526506375D+01
    0.296719372273D-05 0.463506474625D-02 0.835210084915D-05 0.515362161636D+04
    0.324000000000D+06-0.186264514923D-07-0.125335886800D+00 0.167638063431D-07
    0.978808576015D+00 0.225687500000D+03 0.737316291520D+00-0.795175979414D-08
    0.259296515026D-09 0.100000000000D+01 0.186500000000D+04 0.000000000000D+00
    0.200000000000D+01 0.000000000000D+00 0.558793544769D-08 0.980000000000D+02
    0.316818000000D+06 0.400000000000D+01 0.000000000000D+00 0.000000000000D+00
26 15 10  7 18  0  0.0-0.763381831348D-04-0.127329258248D-10 0.000000000000D+00
    0.130000000000D+02 0.505625000000D+02 0.435768151493D-08 0.648022964049D+00
    0.268965959549D-05 0.179904396646D-03 0.844709575176D-05 0.515364887619D+04
    0.324000000000D+06-0.130385160446D-07-0.130239038144D+00-0.353902578354D-07
    0.960871194702D+00 0.216093750000D+03 0.894416878453D-01-0.805640701026D-08
    0.268939773850D-09 0.000000000000D+00 0.186500000000D+04 0.000000000000D+00
    0.200000000000D+01 0.000000000000D+00 0.745058059692D-08 0.130000000000D+02
    0.316800000000D+06 0.400000000000D+01 0.000000000000D+00 0.000000000000D+00
27 15 10  7 18  0  0.0 0.256556086242D-04 0.306954461848D-11 0.000000000000D+00
    0.660000000000D+02-0.993750000000D+01 0.464876506830D-08-0.109962385138D+01
   -0.579282641411D-06 0.268199085258D-02 0.370852649212D-05 0.515370009041D+04
    0.324000000000D+06 0.838190317154D-07 0.917277014212D+00-0.465661287308D-07
    0.968628369020D+00 0.310406250000D+03 0.314343827396D+00-0.830141721592D-08
    0.140362989539D-09 0.000000000000D+00 0.186500000000D+04 0.000000000000D+00
    0.200000000000D+01 0.000000000000D+00 0.186264514923D-08 0.660000000000D+02
    0.316800000000D+06 0.400000000000D+01 0.000000000000D+00 0.000000000000D+00
29 15 10  7 18  0  0.0 0.638342462480D-03 0.193267624127D-11 0.000000000000D+00
    0.240000000000D+02-0.249062500000D+02 0.457769067919D-08 0.141508634444D+01
   -0.136904418468D-05 0.866234884597D-03 0.420399010181D-05 0.515368050385D+04
    0.324000000000D+06 0.260770320892D-07 0.975333345360D+00 0.614672899246D-07
    0.974561005075D+00 0.310781250000D+03-0.473890348989D+00-0.823462871963D-08
    0.800033324599D-10 0.100000000000D+01 0.186500000000D+04 0.000000000000D+00
    0.200000000000D+01 0.000000000000D+00-0.102445483208D-07 0.240000000000D+02
    0.318216000000D+06 0.400000000000D+01 0.000000000000D+00 0.000000000000D+00
30 15 10  7 18  0  0.0 0.372640788555D-04 0.625277607469D-11 0.000000000000D+00
    0.460000000000D+02-0.668750000000D+01 0.449483008486D-08 0.234780395573D+01
   -0.333413481712D-06 0.171814800706D-02 0.927038490772D-05 0.515369020081D+04
    0.324000000000D+06 0.372529029846D-08-0.110076359769D+01-0.111758708954D-07
    0.954499668594D+00 0.199875000000D+03 0.314089572381D+01-0.801676250177D-08
   -0.344300055765D-09 0.100000000000D+01 0.186500000000D+04 0.000000000000D+00
    0.200000000000D+01 0.000000000000D+00 0.325962901115D-08 0.460000000000D+02
    0.323280000000D+06 0.000000000000D+00 0.000000000000D+00 0.000000000000D+00
31 15 10  7 18  0  0.0 0.300089828670D-03-0.147792889038D-11 0.000000000000D+00
    0.160000000000D+02-0.185937500000D+02 0.400552398901D-08 0.241463478028D+01
   -0.746920704842D-06 0.814576598350D-02 0.971741974354D-05 0.515361115837D+04
    0.324000000000D+06-0.204890966415D-07-0.113989444877D+01 0.540167093277D-07
    0.973571109853D+00 0.199937500000D+03-0.516800612351D+00-0.773496504948D-08
   -0.423231915022D-09 0.000000000000D+00 0.186500000000D+04 0.000000000000D+00
    0.200000000000D+01 0.000000000000D+00-0.135041773319D-07 0.160000000000D+02
    0.316800000000D+06 0.400000000000D+01 0.000000000000D+00 0.000000000000D+00
32 15 10  7 18  0  0.0-0.212849117815D-04 0.112549969344D-10 0.000000000000D+00
    0.350000000000D+02 0.357500000000D+02 0.471769651100D-08 0.285097962643D+01
    0.169873237610D-05 0.113559179008D-01 0.950321555138D-05 0.515368123436D+04
    0.324000000000D+06-0.212341547012D-06 0.309593775549D+01-0.726431608200D-07
    0.947305589000D+00 0.188750000000D+03 0.140226183841D+00-0.794533095493D-08
    0.227509476683D-09 0.000000000000D+00 0.186500000000D+04 0.000000000000D+00
    0.200000000000D+01 0.000000000000D+00-0.325962901115D-08 0.350000000000D+02
    0.316800000000D+06 0.400000000000D+01 0.000000000000D+00 0.000000000000D+00
 2 15 10  7 19 59 44.0 0.591898802668D-03 0.136424205266D-11 0.000000000000D+00
    0.100000000000D+02-0.608437500000D+02 0.501628037678D-08-0.159764680715D+01
   -0.310875475407D-05 0.148291472578D-01 0.829994678497D-05 0.515364184570D+04
    0.331184000000D+06 0.305473804474D-06 0.193457022504D+01-0.204890966415D-07
    0.941416018327D+00 0.204031250000D+03-0.222604392641D+01-0.812140971789D-08
   -0.357157734196D-10 0.100000000000D+01 0.186500000000D+04 0.000000000000D+00
    0.200000000000D+01 0.000000000000D+00-0.204890966415D-07 0.100000000000D+02
    0.327876000000D+06 0.400000000000D+01 0.000000000000D+00 0.000000000000D+00
22 15 10  7 19 59 44.0 0.398615375161D-03 0.375166564481D-11 0.000000000000D+00
    0.220000000000D+02 0.250937500000D+02 0.555844581729D-08 0.105988820803D+01
    0.139512121677D-05 0.799406855367D-02 0.971741974354D-05 0.515368217087D+04
    0.331184000000D+06-0.968575477600D-07 0.299185699021D+01 0.968575477600D-07
    0.923268623421D+00 0.174500000000D+03-0.204176483924D+01-0.862464496537D-08
    0.281083136812D-09 0.000000000000D+00 0.186500000000D+04 0.000000000000D+00
    0.200000000000D+01 0.000000000000D+00-0.176951289177D-07 0.220000000000D+02
    0.324000000000D+06 0.400000000000D+01 0.000000000000D+00 0.000000000000D+00
 1 15 10  7 20  0  0.0 0.192783772945D-05 0.795807864051D-12 0.000000000000D+00
    0.730000000000D+02-0.762812500000D+02 0.450840207876D-08-0.217136210693D+01
   -0.412389636040D-05 0.475710583851D-02 0.875443220138D-05 0.515366150856D+04
    0.331200000000D+06 0.298023223877D-07 0.197504366479D+01-0.856816768646D-07
    0.962759140223D+00 0.212312500000D+03 0.485901124395D+00-0.799104714490D-08
   -0.585738684082D-10 0.000000000000D+00 0.186500000000D+04 0.000000000000D+00
    0.200000000000D+01 0.000000000000D+00 0.512227416039D-08 0.730000000000D+02
    0.324000000000D+06 0.400000000000D+01 0.000000000000D+00 0.000000000000D+00
